CCSDS_OMM_VERS = 2.0
CREATION_DATE  = 
ORIGINATOR     = 

OBJECT_NAME    = STARLINK-34672
OBJECT_ID      = 2025-224N
CENTER_NAME    = EARTH
REF_FRAME      = TEME
TIME_SYSTEM    = UTC
MEAN_ELEMENT_THEORY = SGP/SGP4

EPOCH          = 2025-11-04T01:43:32.877984
MEAN_MOTION    = 15.49351373
ECCENTRICITY   = .00013288
INCLINATION    = 53.1616
RA_OF_ASC_NODE = 236.1006
ARG_OF_PERICENTER = 80.9284
MEAN_ANOMALY   = 279.1875

EPHEMERIS_TYPE = 0
CLASSIFICATION_TYPE = U
NORAD_CAT_ID   = 65894
ELEMENT_SET_NO = 999
REV_AT_EPOCH   = 562
BSTAR          = .16571793E-2
MEAN_MOTION_DOT = .9296E-3
MEAN_MOTION_DDOT = 0

CCSDS_OMM_VERS = 2.0
CREATION_DATE  = 
ORIGINATOR     = 

OBJECT_NAME    = STARLINK-34898
OBJECT_ID      = 2025-224P
CENTER_NAME    = EARTH
REF_FRAME      = TEME
TIME_SYSTEM    = UTC
MEAN_ELEMENT_THEORY = SGP/SGP4

EPOCH          = 2025-11-04T01:41:34.138464
MEAN_MOTION    = 15.49345402
ECCENTRICITY   = .00012916
INCLINATION    = 53.1621
RA_OF_ASC_NODE = 236.0898
ARG_OF_PERICENTER = 78.8453
MEAN_ANOMALY   = 281.2701

EPHEMERIS_TYPE = 0
CLASSIFICATION_TYPE = U
NORAD_CAT_ID   = 65895
ELEMENT_SET_NO = 999
REV_AT_EPOCH   = 562
BSTAR          = .1463537E-2
MEAN_MOTION_DOT = .81911E-3
MEAN_MOTION_DDOT = 0

CCSDS_OMM_VERS = 2.0
CREATION_DATE  = 
ORIGINATOR     = 

OBJECT_NAME    = STARLINK-34906
OBJECT_ID      = 2025-224Q
CENTER_NAME    = EARTH
REF_FRAME      = TEME
TIME_SYSTEM    = UTC
MEAN_ELEMENT_THEORY = SGP/SGP4

EPOCH          = 2025-11-04T12:00:02.998944
MEAN_MOTION    = 15.49260901
ECCENTRICITY   = .0001067
INCLINATION    = 53.1606
RA_OF_ASC_NODE = 234.0398
ARG_OF_PERICENTER = 103.3920
MEAN_ANOMALY   = 131.7280

EPHEMERIS_TYPE = 0
CLASSIFICATION_TYPE = U
NORAD_CAT_ID   = 65896
ELEMENT_SET_NO = 999
REV_AT_EPOCH   = 575
BSTAR          = .88428E-3
MEAN_MOTION_DOT = .48957E-3
MEAN_MOTION_DDOT = 0

CCSDS_OMM_VERS = 2.0
CREATION_DATE  = 
ORIGINATOR     = 

OBJECT_NAME    = STARLINK-34934
OBJECT_ID      = 2025-224R
CENTER_NAME    = EARTH
REF_FRAME      = TEME
TIME_SYSTEM    = UTC
MEAN_ELEMENT_THEORY = SGP/SGP4

EPOCH          = 2025-11-04T01:40:34.724640
MEAN_MOTION    = 15.49342052
ECCENTRICITY   = .00007773
INCLINATION    = 53.1618
RA_OF_ASC_NODE = 236.0849
ARG_OF_PERICENTER = 81.1350
MEAN_ANOMALY   = 278.9748

EPHEMERIS_TYPE = 0
CLASSIFICATION_TYPE = U
NORAD_CAT_ID   = 65897
ELEMENT_SET_NO = 999
REV_AT_EPOCH   = 557
BSTAR          = .13618662E-2
MEAN_MOTION_DOT = .76123E-3
MEAN_MOTION_DDOT = 0

CCSDS_OMM_VERS = 2.0
CREATION_DATE  = 
ORIGINATOR     = 

OBJECT_NAME    = STARLINK-34936
OBJECT_ID      = 2025-224S
CENTER_NAME    = EARTH
REF_FRAME      = TEME
TIME_SYSTEM    = UTC
MEAN_ELEMENT_THEORY = SGP/SGP4

EPOCH          = 2025-11-04T04:46:52.383360
MEAN_MOTION    = 15.49316746
ECCENTRICITY   = .0004858
INCLINATION    = 53.1598
RA_OF_ASC_NODE = 235.4711
ARG_OF_PERICENTER = 21.7328
MEAN_ANOMALY   = 338.3887

EPHEMERIS_TYPE = 0
CLASSIFICATION_TYPE = U
NORAD_CAT_ID   = 65898
ELEMENT_SET_NO = 999
REV_AT_EPOCH   = 564
BSTAR          = .13028E-2
MEAN_MOTION_DOT = .7273E-3
MEAN_MOTION_DDOT = 0

CCSDS_OMM_VERS = 2.0
CREATION_DATE  = 
ORIGINATOR     = 

OBJECT_NAME    = STARLINK-35272
OBJECT_ID      = 2025-224T
CENTER_NAME    = EARTH
REF_FRAME      = TEME
TIME_SYSTEM    = UTC
MEAN_ELEMENT_THEORY = SGP/SGP4

EPOCH          = 2025-11-04T01:40:05.197440
MEAN_MOTION    = 15.49333233
ECCENTRICITY   = .00009946
INCLINATION    = 53.1624
RA_OF_ASC_NODE = 236.0815
ARG_OF_PERICENTER = 85.4728
MEAN_ANOMALY   = 274.6395

EPHEMERIS_TYPE = 0
CLASSIFICATION_TYPE = U
NORAD_CAT_ID   = 65899
ELEMENT_SET_NO = 999
REV_AT_EPOCH   = 561
BSTAR          = .14148777E-2
MEAN_MOTION_DOT = .79109E-3
MEAN_MOTION_DDOT = 0

CCSDS_OMM_VERS = 2.0
CREATION_DATE  = 
ORIGINATOR     = 

OBJECT_NAME    = STARLINK-35264
OBJECT_ID      = 2025-224U
CENTER_NAME    = EARTH
REF_FRAME      = TEME
TIME_SYSTEM    = UTC
MEAN_ELEMENT_THEORY = SGP/SGP4

EPOCH          = 2025-11-04T01:39:35.411904
MEAN_MOTION    = 15.49341402
ECCENTRICITY   = .00012078
INCLINATION    = 53.1614
RA_OF_ASC_NODE = 236.0797
ARG_OF_PERICENTER = 89.7290
MEAN_ANOMALY   = 270.3857

EPHEMERIS_TYPE = 0
CLASSIFICATION_TYPE = U
NORAD_CAT_ID   = 65900
ELEMENT_SET_NO = 999
REV_AT_EPOCH   = 561
BSTAR          = .15430871E-2
MEAN_MOTION_DOT = .86425E-3
MEAN_MOTION_DDOT = 0

CCSDS_OMM_VERS = 2.0
CREATION_DATE  = 
ORIGINATOR     = 

OBJECT_NAME    = STARLINK-35249
OBJECT_ID      = 2025-224V
CENTER_NAME    = EARTH
REF_FRAME      = TEME
TIME_SYSTEM    = UTC
MEAN_ELEMENT_THEORY = SGP/SGP4

EPOCH          = 2025-11-04T01:39:05.723136
MEAN_MOTION    = 15.49344569
ECCENTRICITY   = .00014505
INCLINATION    = 53.1621
RA_OF_ASC_NODE = 236.0783
ARG_OF_PERICENTER = 81.8023
MEAN_ANOMALY   = 278.3150

EPHEMERIS_TYPE = 0
CLASSIFICATION_TYPE = U
NORAD_CAT_ID   = 65901
ELEMENT_SET_NO = 999
REV_AT_EPOCH   = 560
BSTAR          = .14820711E-2
MEAN_MOTION_DOT = .82963E-3
MEAN_MOTION_DDOT = 0

CCSDS_OMM_VERS = 2.0
CREATION_DATE  = 
ORIGINATOR     = 

OBJECT_NAME    = STARLINK-35278
OBJECT_ID      = 2025-224W
CENTER_NAME    = EARTH
REF_FRAME      = TEME
TIME_SYSTEM    = UTC
MEAN_ELEMENT_THEORY = SGP/SGP4

EPOCH          = 2025-11-04T08:00:03.000384
MEAN_MOTION    = 15.49245069
ECCENTRICITY   = .0001355
INCLINATION    = 53.1605
RA_OF_ASC_NODE = 234.8014
ARG_OF_PERICENTER = 85.0783
MEAN_ANOMALY   = 317.1949

EPHEMERIS_TYPE = 0
CLASSIFICATION_TYPE = U
NORAD_CAT_ID   = 65902
ELEMENT_SET_NO = 999
REV_AT_EPOCH   = 573
BSTAR          = .14776E-2
MEAN_MOTION_DOT = .82415E-3
MEAN_MOTION_DDOT = 0

CCSDS_OMM_VERS = 2.0
CREATION_DATE  = 
ORIGINATOR     = 

OBJECT_NAME    = STARLINK-35210
OBJECT_ID      = 2025-224X
CENTER_NAME    = EARTH
REF_FRAME      = TEME
TIME_SYSTEM    = UTC
MEAN_ELEMENT_THEORY = SGP/SGP4

EPOCH          = 2025-11-04T01:38:06.338688
MEAN_MOTION    = 15.49348370
ECCENTRICITY   = .00011699
INCLINATION    = 53.1614
RA_OF_ASC_NODE = 236.0739
ARG_OF_PERICENTER = 71.6960
MEAN_ANOMALY   = 288.4176

EPHEMERIS_TYPE = 0
CLASSIFICATION_TYPE = U
NORAD_CAT_ID   = 65903
ELEMENT_SET_NO = 999
REV_AT_EPOCH   = 560
BSTAR          = .17747889E-2
MEAN_MOTION_DOT = .99664E-3
MEAN_MOTION_DDOT = 0

CCSDS_OMM_VERS = 2.0
CREATION_DATE  = 
ORIGINATOR     = 

OBJECT_NAME    = STARLINK-35348
OBJECT_ID      = 2025-224Y
CENTER_NAME    = EARTH
REF_FRAME      = TEME
TIME_SYSTEM    = UTC
MEAN_ELEMENT_THEORY = SGP/SGP4

EPOCH          = 2025-11-04T01:38:36.093984
MEAN_MOTION    = 15.49338142
ECCENTRICITY   = .00009769
INCLINATION    = 53.1610
RA_OF_ASC_NODE = 236.0761
ARG_OF_PERICENTER = 64.7126
MEAN_ANOMALY   = 295.3984

EPHEMERIS_TYPE = 0
CLASSIFICATION_TYPE = U
NORAD_CAT_ID   = 65904
ELEMENT_SET_NO = 999
REV_AT_EPOCH   = 557
BSTAR          = .14012001E-2
MEAN_MOTION_DOT = .78346E-3
MEAN_MOTION_DDOT = 0

CCSDS_OMM_VERS = 2.0
CREATION_DATE  = 
ORIGINATOR     = 

OBJECT_NAME    = STARLINK-35380
OBJECT_ID      = 2025-224Z
CENTER_NAME    = EARTH
REF_FRAME      = TEME
TIME_SYSTEM    = UTC
MEAN_ELEMENT_THEORY = SGP/SGP4

EPOCH          = 2025-11-04T01:37:07.085568
MEAN_MOTION    = 15.49346268
ECCENTRICITY   = .00012412
INCLINATION    = 53.1608
RA_OF_ASC_NODE = 236.0687
ARG_OF_PERICENTER = 93.2612
MEAN_ANOMALY   = 266.8539

EPHEMERIS_TYPE = 0
CLASSIFICATION_TYPE = U
NORAD_CAT_ID   = 65905
ELEMENT_SET_NO = 999
REV_AT_EPOCH   = 557
BSTAR          = .16363825E-2
MEAN_MOTION_DOT = .91757E-3
MEAN_MOTION_DDOT = 0

